JINJUSAT-1B             
1 63210U 25052A   26068.66363707  .00019955  00000+0  68430-3 0  9998
2 63210  97.4113 325.4613 0005550  82.1930 277.9941 15.30194857 54866
STARLINK-35217          
1 65627U 25210F   26068.92741210  .00020960  00000+0  71735-3 0  9996
2 65627  53.1599 306.2446 0001329  80.9871 279.1280 15.30220800 27765
